SENTINEL-6              
1 46984U 20086A   24179.61575647 -.00000048  00000+0  56993-4 0  9999
2 46984  66.0387 189.6099 0007966 270.2640  89.7462 12.80929356168167
